STARLINK-1812           
1 47126U 20088E   26068.90575686  .00039367  00000+0  20820-2 0  9997
2 47126  53.0793 298.6686 0002749 128.8313 231.2926 15.15107348291903
MICE-1                  
1 66684U 25276U   26068.76226485  .00005448  00000+0  26807-3 0  9990
2 66684  97.4336 144.0716 0005038 357.2456   2.8750 15.18401277 15324
