[{"OBJECT_NAME":"STARLINK-1812","OBJECT_ID":"2020-088E","EPOCH":"2026-03-09T21:44:17.393568","MEAN_MOTION":15.15107348,"ECCENTRICITY":0.00027492,"INCLINATION":53.0793,"RA_OF_ASC_NODE":298.6686,"ARG_OF_PERICENTER":128.8313,"MEAN_ANOMALY":231.2926,"EPHEMERIS_TYPE":0,"CLASSIFICATION_TYPE":"U","NORAD_CAT_ID":47126,"ELEMENT_SET_NO":999,"REV_AT_EPOCH":29190,"BSTAR":0.0020820336,"MEAN_MOTION_DOT":0.00039367,"MEAN_MOTION_DDOT":0},{"OBJECT_NAME":"MICE-1","OBJECT_ID":"2025-276U","EPOCH":"2026-03-09T18:17:39.683040","MEAN_MOTION":15.18401277,"ECCENTRICITY":0.00050387,"INCLINATION":97.4336,"RA_OF_ASC_NODE":144.0716,"ARG_OF_PERICENTER":357.2456,"MEAN_ANOMALY":2.875,"EPHEMERIS_TYPE":0,"CLASSIFICATION_TYPE":"U","NORAD_CAT_ID":66684,"ELEMENT_SET_NO":999,"REV_AT_EPOCH":1532,"BSTAR":0.00026807405,"MEAN_MOTION_DOT":5.448e-5,"MEAN_MOTION_DDOT":0}]
